NORAD_CAT_ID,OBJECT_NAME,OBJECT_TYPE,EPOCH,MEAN_MOTION,ECCENTRICITY,INCLINATION,RA_OF_ASC_NODE,ARG_OF_PERICENTER,MEAN_ANOMALY,BSTAR,MEAN_MOTION_DOT,MEAN_MOTION_DDOT,TLE_LINE0,TLE_LINE1,TLE_LINE2,SEMIMAJOR_AXIS,PERIOD,APOGEE,PERIGEE,DECAYED
54171.0,STARLINK-5229,PAYLOAD,2024-03-24 22:05:58,15.08844149,0.0002271,53.2183,337.682,123.1023,237.0187,0.00028144,4.194e-05,0.0,0 STARLINK-5229,1 54171U 22141Q   24084.92081749  .00004194  00000-0  28144-3 0  9996,2 54171  53.2183 337.6820 0002271 123.1023 237.0187 15.08844149 77887,6917.868,95.437,541.304,538.162,0.0
54171.0,STARLINK-5229,PAYLOAD,2024-03-25 02:52:07,15.08850546,0.0001204,53.2167,336.7953,95.5879,264.525,0.00030949,4.642e-05,0.0,0 STARLINK-5229,1 54171U 22141Q   24085.11953657  .00004642  00000-0  30949-3 0  9998,2 54171  53.2167 336.7953 0001204  95.5879 264.5250 15.08850546 77910,6917.848,95.437,540.546,538.88,0.0
54171.0,STARLINK-5229,PAYLOAD,2024-03-25 21:56:45,15.08853876,0.000159,53.2185,333.2302,101.3053,258.8118,0.00020357,2.954e-05,0.0,0 STARLINK-5229,1 54171U 22141Q   24085.91441167  .00002954  00000-0  20357-3 0  9990,2 54171  53.2185 333.2302 0001590 101.3053 258.8118 15.08853876 78030,6917.838,95.437,540.803,538.603,0.0
54171.0,STARLINK-5229,PAYLOAD,2024-03-26 09:04:27,15.08841056,0.0001904,53.2174,331.1472,77.5176,282.6029,-4.6494e-05,-1.028e-05,0.0,0 STARLINK-5229,1 54171U 22141Q   24086.37809573 -.00001028  00000-0 -46494-4 0  9994,2 54171  53.2174 331.1472 0001904  77.5176 282.6029 15.08841056 78103,6917.877,95.437,541.059,538.425,0.0
54171.0,STARLINK-5229,PAYLOAD,2024-03-26 21:47:33,15.08833692,0.0001698,53.2192,328.7691,88.3107,271.808,4.4091e-05,4.14e-06,0.0,0 STARLINK-5229,1 54171U 22141Q   24086.90802528  .00000414  00000-0  44091-4 0  9993,2 54171  53.2192 328.7691 0001698  88.3107 271.8080 15.08833692 78184,6917.9,95.438,540.939,538.59,0.0
54171.0,STARLINK-5229,PAYLOAD,2024-03-27 08:55:15,15.0883953,0.000159,53.2184,326.6877,84.0157,276.1016,-5.4398e-05,-1.154e-05,0.0,0 STARLINK-5229,1 54171U 22141Q   24087.37170416 -.00001154  00000-0 -54398-4 0  9994,2 54171  53.2184 326.6877 0001590  84.0157 276.1016 15.08839530 78259,6917.882,95.438,540.847,538.647,0.0
54171.0,STARLINK-5229,PAYLOAD,2024-03-27 20:02:58,15.08823093,9.2e-05,53.2184,324.6027,67.9986,292.1103,-0.00010892,-2.02e-05,0.0,0 STARLINK-5229,1 54171U 22141Q   24087.83539583 -.00002020  00000-0 -10892-3 0  9992,2 54171  53.2184 324.6027 0000920  67.9986 292.1103 15.08823093 78320,6917.932,95.439,540.434,539.161,0.0
54171.0,STARLINK-5229,PAYLOAD,2024-03-27 21:38:19,15.08848841,0.0001475,53.2184,324.3069,115.3996,244.7149,-6.6549e-05,-1.347e-05,0.0,0 STARLINK-5229,1 54171U 22141Q   24087.90161895 -.00001347  00000-0 -66549-4 0  9999,2 54171  53.2184 324.3069 0001475 115.3996 244.7149 15.08848841 78330,6917.853,95.437,540.739,538.698,0.0
54171.0,STARLINK-5229,PAYLOAD,2024-03-28 00:49:06,15.08847784,0.0001351,53.2182,323.7123,88.9827,271.132,-6.8585e-05,-1.38e-05,0.0,0 STARLINK-5229,1 54171U 22141Q   24088.03410025 -.00001380  00000-0 -68585-4 0  9995,2 54171  53.2182 323.7123 0001351  88.9827 271.1320 15.08847784 78355,6917.857,95.437,540.656,538.787,0.0
54171.0,STARLINK-5229,PAYLOAD,2024-03-28 15:07:35,15.08829178,0.0001393,53.2182,321.037,78.5927,281.5221,6.3793e-05,7.27e-06,0.0,0 STARLINK-5229,1 54171U 22141Q   24088.63027160  .00000727  00000-0  63793-4 0  9993,2 54171  53.2182 321.0370 0001393  78.5927 281.5221 15.08829178 78444,6917.913,95.438,540.742,538.815,0.0
54171.0,STARLINK-5229,PAYLOAD,2024-03-28 21:29:07,15.08832305,0.000141,53.2179,319.8469,101.9682,258.1468,0.00013328,1.833e-05,0.0,0 STARLINK-5229,1 54171U 22141Q   24088.89522821  .00001833  00000-0  13328-3 0  9992,2 54171  53.2179 319.8469 0001410 101.9682 258.1468 15.08832305 78486,6917.904,95.438,540.744,538.793,0.0
54171.0,STARLINK-5229,PAYLOAD,2024-03-28 23:04:31,15.0882849,0.0001541,53.2188,319.5504,79.1336,280.983,-2.1921e-05,-6.37e-06,0.0,0 STARLINK-5229,1 54171U 22141Q   24088.96147546 -.00000637  00000-0 -21921-4 0  9999,2 54171  53.2188 319.5504 0001541  79.1336 280.9830 15.08828490 78497,6917.916,95.438,540.847,538.715,0.0
54171.0,STARLINK-5229,PAYLOAD,2024-03-29 00:39:53,15.08846027,0.0001485,53.2187,319.2532,79.0428,281.0732,0.00021829,3.188e-05,0.0,0 STARLINK-5229,1 54171U 22141Q   24089.02769864  .00003188  00000-0  21829-3 0  9998,2 54171  53.2187 319.2532 0001485  79.0428 281.0732 15.08846027 78503,6917.862,95.437,540.754,538.7,0.0
54171.0,STARLINK-5229,PAYLOAD,2024-03-29 08:36:49,15.08838449,0.0001458,53.2188,317.767,89.1836,270.9323,0.00014664,2.046e-05,0.0,0 STARLINK-5229,1 54171U 22141Q   24089.35890558  .00002046  00000-0  14664-3 0  9990,2 54171  53.2188 317.7670 0001458  89.1836 270.9323 15.08838449 78552,6917.885,95.438,540.759,538.742,0.0
54171.0,STARLINK-5229,PAYLOAD,2024-03-29 21:19:54,15.08838223,8.7e-05,53.2189,315.3882,94.9242,265.185,0.00022809,3.344e-05,0.0,0 STARLINK-5229,1 54171U 22141Q   24089.88882355  .00003344  00000-0  22809-3 0  9996,2 54171  53.2189 315.3882 0000870  94.9242 265.1850 15.08838223 78634,6917.886,95.438,540.353,539.149,0.0
54171.0,STARLINK-5229,PAYLOAD,2024-03-30 08:27:36,15.08840632,0.0001175,53.2181,313.3089,83.7364,276.3762,7.8901e-05,9.68e-06,0.0,0 STARLINK-5229,1 54171U 22141Q   24090.35250521  .00000968  00000-0  78901-4 0  9998,2 54171  53.2181 313.3089 0001175  83.7364 276.3762 15.08840632 78704,6917.878,95.438,540.556,538.931,0.0
54171.0,STARLINK-5229,PAYLOAD,2024-03-30 21:10:41,15.08843641,0.0001357,53.2183,310.9275,91.1764,268.9383,-8.6585e-06,-4.26e-06,0.0,0 STARLINK-5229,1 54171U 22141Q   24090.88242694 -.00000426  00000-0 -86585-5 0  9997,2 54171  53.2183 310.9275 0001357  91.1764 268.9383 15.08843641 78782,6917.869,95.437,540.673,538.796,0.0
54171.0,STARLINK-5229,PAYLOAD,2024-03-31 00:21:27,15.08844723,0.0001794,53.2194,310.3316,105.0939,255.0252,2.5616e-05,1.2e-06,0.0,0 STARLINK-5229,1 54171U 22141Q   24091.01490518  .00000120  00000-0  25616-4 0  9999,2 54171  53.2194 310.3316 0001794 105.0939 255.0252 15.08844723 78805,6917.866,95.437,540.972,538.49,0.0
54171.0,STARLINK-5229,PAYLOAD,2024-03-31 21:01:28,15.08847025,0.0001289,53.2179,306.4666,92.7664,267.3476,5.0163e-05,5.11e-06,0.0,0 STARLINK-5229,1 54171U 22141Q   24091.87601974  .00000511  00000-0  50163-4 0  9992,2 54171  53.2179 306.4666 0001289  92.7664 267.3476 15.08847025 78934,6917.859,95.437,540.616,538.832,0.0
54171.0,STARLINK-5229,PAYLOAD,2024-04-01 00:12:14,15.08852921,0.000124,53.2174,305.8713,90.5379,269.5755,6.3053e-06,-1.88e-06,0.0,0 STARLINK-5229,1 54171U 22141Q   24092.00849680 -.00000188  00000-0  63053-5 0  9990,2 54171  53.2174 305.8713 0001240  90.5379 269.5755 15.08852921 78958,6917.841,95.437,540.564,538.848,0.0
54171.0,STARLINK-5229,PAYLOAD,2024-04-01 14:30:43,15.08831752,0.0001267,53.217,303.1919,98.8242,261.2894,3.6024e-05,2.85e-06,0.0,0 STARLINK-5229,1 54171U 22141Q   24092.60467032  .00000285  00000-0  36024-4 0  9997,2 54171  53.2170 303.1919 0001267  98.8242 261.2894 15.08831752 79045,6917.906,95.438,540.647,538.894,0.0
54171.0,STARLINK-5229,PAYLOAD,2024-04-01 20:52:15,15.0883566,0.0001228,53.2169,302.0061,92.3746,267.7386,8.825e-05,1.117e-05,0.0,0 STARLINK-5229,1 54171U 22141Q   24092.86962860  .00001117  00000-0  88250-4 0  9997,2 54171  53.2169 302.0061 0001228  92.3746 267.7386 15.08835660 79087,6917.894,95.438,540.608,538.909,0.0
54171.0,STARLINK-5229,PAYLOAD,2024-04-02 06:24:34,15.08839887,0.0001254,53.2166,300.2213,90.2201,269.8935,8.3912e-05,1.048e-05,0.0,0 STARLINK-5229,1 54171U 22141Q   24093.26706761  .00001048  00000-0  83912-4 0  9991,2 54171  53.2166 300.2213 0001254  90.2201 269.8935 15.08839887 79140,6917.881,95.438,540.613,538.878,0.0
54171.0,STARLINK-5229,PAYLOAD,2024-04-02 20:43:02,15.08846251,0.0001252,53.2162,297.5483,98.1543,261.9591,6.5315e-05,7.52e-06,0.0,0 STARLINK-5229,1 54171U 22141Q   24093.86322472  .00000752  00000-0  65315-4 0  9998,2 54171  53.2162 297.5483 0001252  98.1543 261.9591 15.08846251 79231,6917.861,95.437,540.592,538.86,0.0
54171.0,STARLINK-5229,PAYLOAD,2024-04-03 06:15:21,15.08847394,0.0001245,53.2166,295.7641,97.0991,263.0143,6.9082e-05,8.12e-06,0.0,0 STARLINK-5229,1 54171U 22141Q   24094.26066297  .00000812  00000-0  69082-4 0  9995,2 54171  53.2166 295.7641 0001245  97.0991 263.0143 15.08847394 79299,6917.858,95.437,540.584,538.862,0.0
54171.0,STARLINK-5229,PAYLOAD,2024-04-03 18:58:27,15.08833018,0.0001417,53.2185,293.3874,109.3942,250.7203,7.9695e-05,9.8e-06,0.0,0 STARLINK-5229,1 54171U 22141Q   24094.79059470  .00000980  00000-0  79695-4 0  9995,2 54171  53.2185 293.3874 0001417 109.3942 250.7203 15.08833018 79373,6917.902,95.438,540.747,538.786,0.0
54171.0,STARLINK-5229,PAYLOAD,2024-04-03 22:09:13,15.088329,0.0001384,53.218,292.7919,103.2964,256.8183,6.9345e-05,8.16e-06,0.0,0 STARLINK-5229,1 54171U 22141Q   24094.92307535  .00000816  00000-0  69345-4 0  9997,2 54171  53.2180 292.7919 0001384 103.2964 256.8183 15.08832900 79396,6917.902,95.438,540.725,538.81,0.0
54171.0,STARLINK-5229,PAYLOAD,2024-04-04 06:06:09,15.0884015,0.0001298,53.2177,291.3033,94.7827,265.3313,1.0101e-05,-1.27e-06,0.0,0 STARLINK-5229,1 54171U 22141Q   24095.25427182 -.00000127  00000-0  10101-4 0  9997,2 54171  53.2177 291.3033 0001298  94.7827 265.3313 15.08840150 79442,6917.88,95.438,540.643,538.847,0.0
54171.0,STARLINK-5229,PAYLOAD,2024-04-04 20:24:36,15.08847471,0.0001184,53.217,288.6258,88.584,271.5288,2.7121e-05,1.44e-06,0.0,0 STARLINK-5229,1 54171U 22141Q   24095.85042697  .00000144  00000-0  27121-4 0  9995,2 54171  53.2170 288.6258 0001184  88.5840 271.5288 15.08847471 79536,6917.858,95.437,540.542,538.903,0.0
54171.0,STARLINK-5229,PAYLOAD,2024-04-05 12:18:28,15.08840679,0.0001223,53.2169,285.6521,85.51,274.6032,0.00013925,1.929e-05,0.0,0 STARLINK-5229,1 54171U 22141Q   24096.51282666  .00001929  00000-0  13925-3 0  9999,2 54171  53.2169 285.6521 0001223  85.5100 274.6032 15.08840679 79639,6917.878,95.438,540.589,538.897,0.0
